ORBCOMM FM103           
1 40091U 14040F   26008.30741528  .00000947  00000+0  23776-3 0  9996
2 40091  47.0045 128.8160 0001589 169.1731 190.9189 14.58589269594049
ORBCOMM FM114           
1 41179U 15081A   26008.25529501  .00000849  00000+0  21688-3 0  9990
2 41179  47.0058  38.0146 0002575 211.0647 149.0087 14.58611219534403
ORBCOMM FM119           
1 41180U 15081B   26008.18377813  .00000808  00000+0  20842-3 0  9997
2 41180  47.0012 307.7122 0001722 277.8597  82.2094 14.58559856535643
ORBCOMM FM105           
1 41181U 15081C   26008.19065976  .00000317  00000+0  13361-3 0  9996
2 41181  47.0029 332.6775 0001401 190.2671 169.8181 14.45433960530409
ORBCOMM FM110           
1 41182U 15081D   26008.10767972  .00000970  00000+0  24236-3 0  9991
2 41182  47.0030  38.2011 0001745  33.2954 326.8042 14.58654081534256
ORBCOMM FM118           
1 41183U 15081E   26008.07383427  .00000835  00000+0  21393-3 0  9998
2 41183  47.0050  38.6656 0002746 350.5989   9.4845 14.58638498534353
ORBCOMM FM112           
1 41184U 15081F   26008.21344299  .00001008  00000+0  25063-3 0  9990
2 41184  46.9999 306.5309 0001621 221.6442 138.4320 14.58642811535591
ORBCOMM FM113           
1 41185U 15081G   26008.19076638  .00001141  00000+0  27880-3 0  9994
2 41185  47.0015 306.9984 0001541 236.0186 124.0553 14.58640362535578
